[
    {
        "CCSDS_OMM_VERS": "2.0",
        "COMMENT": "GENERATED VIA SPACE-TRACK.ORG API",
        "CREATION_DATE": "2024-01-02T17:56:16",
        "ORIGINATOR": "18 SPCS",
        "OBJECT_NAME": "OBJECT A",
        "OBJECT_ID": "2015-049A",
        "CENTER_NAME": "EARTH",
        "REF_FRAME": "TEME",
        "TIME_SYSTEM": "UTC",
        "MEAN_ELEMENT_THEORY": "SGP4",
        "EPOCH": "2024-01-02T13:30:18.096480",
        "MEAN_MOTION": "15.32279288",
        "ECCENTRICITY": "0.00101970",
        "INCLINATION": "97.4767",
        "RA_OF_ASC_NODE": "16.0552",
        "ARG_OF_PERICENTER": "173.8348",
        "MEAN_ANOMALY": "186.3021",
        "EPHEMERIS_TYPE": "0",
        "CLASSIFICATION_TYPE": "U",
        "NORAD_CAT_ID": "40899",
        "ELEMENT_SET_NO": "999",
        "REV_AT_EPOCH": "45895",
        "BSTAR": "0.00052516000000",
        "MEAN_MOTION_DOT": "0.00016330",
        "MEAN_MOTION_DDOT": "0.0000000000000",
        "SEMIMAJOR_AXIS": "6847.151",
        "PERIOD": "93.978",
        "APOAPSIS": "475.998",
        "PERIAPSIS": "462.034",
        "OBJECT_TYPE": "UNKNOWN",
        "RCS_SIZE": "MEDIUM",
        "COUNTRY_CODE": "PRC",
        "LAUNCH_DATE": "2015-09-19",
        "SITE": "TSC",
        "DECAY_DATE": null,
        "FILE": "4151729",
        "GP_ID": "246099065",
        "TLE_LINE0": "0 OBJECT A",
        "TLE_LINE1": "1 40899U 15049A   24002.56270945  .00016330  00000-0  52516-3 0  9990",
        "TLE_LINE2": "2 40899  97.4767  16.0552 0010197 173.8348 186.3021 15.32279288458952"
    },
    {
        "CCSDS_OMM_VERS": "2.0",
        "COMMENT": "GENERATED VIA SPACE-TRACK.ORG API",
        "CREATION_DATE": "2024-01-02T17:56:16",
        "ORIGINATOR": "18 SPCS",
        "OBJECT_NAME": "OBJECT G",
        "OBJECT_ID": "2015-049G",
        "CENTER_NAME": "EARTH",
        "REF_FRAME": "TEME",
        "TIME_SYSTEM": "UTC",
        "MEAN_ELEMENT_THEORY": "SGP4",
        "EPOCH": "2024-01-02T13:18:46.574208",
        "MEAN_MOTION": "15.24501497",
        "ECCENTRICITY": "0.00117340",
        "INCLINATION": "97.5263",
        "RA_OF_ASC_NODE": "10.4199",
        "ARG_OF_PERICENTER": "199.5124",
        "MEAN_ANOMALY": "160.5666",
        "EPHEMERIS_TYPE": "0",
        "CLASSIFICATION_TYPE": "U",
        "NORAD_CAT_ID": "40905",
        "ELEMENT_SET_NO": "999",
        "REV_AT_EPOCH": "45829",
        "BSTAR": "0.00033500000000",
        "MEAN_MOTION_DOT": "0.00008180",
        "MEAN_MOTION_DDOT": "0.0000000000000",
        "SEMIMAJOR_AXIS": "6870.420",
        "PERIOD": "94.457",
        "APOAPSIS": "500.347",
        "PERIAPSIS": "484.223",
        "OBJECT_TYPE": "UNKNOWN",
        "RCS_SIZE": "MEDIUM",
        "COUNTRY_CODE": "PRC",
        "LAUNCH_DATE": "2015-09-19",
        "SITE": "TSC",
        "DECAY_DATE": null,
        "FILE": "4151729",
        "GP_ID": "246099067",
        "TLE_LINE0": "0 OBJECT G",
        "TLE_LINE1": "1 40905U 15049G   24002.55470572  .00008180  00000-0  33500-3 0  9991",
        "TLE_LINE2": "2 40905  97.5263  10.4199 0011734 199.5124 160.5666 15.24501497458299"
    }
]